STARLINK-2644_new
1 18442C 21040Q   21326.17725780  .00003728  00000-0  24978-3 0  3267
2 18442  53.0551  22.9321 0001525  55.4736   1.1823 15.06394720    18
STARLINK-2644_old
1 28442C 21040Q   21325.11842926  .00000400  00000-0  26798-4 0  3258
2 28442  53.0548  27.6855 0001383  55.6726  15.7123 15.06408657    10
